CCSDS_OMM_VERS = 2.0
CREATION_DATE  = 
ORIGINATOR     = 

OBJECT_NAME    = STARLINK-36635
OBJECT_ID      = 2026-018N
CENTER_NAME    = EARTH
REF_FRAME      = TEME
TIME_SYSTEM    = UTC
MEAN_ELEMENT_THEORY = SGP/SGP4

EPOCH          = 2026-02-10T06:00:02.000160
MEAN_MOTION    = 15.80801898
ECCENTRICITY   = .00012336
INCLINATION    = 97.2777
RA_OF_ASC_NODE = 105.6572
ARG_OF_PERICENTER = 54.0496
MEAN_ANOMALY   = 6.3671

EPHEMERIS_TYPE = 0
CLASSIFICATION_TYPE = U
NORAD_CAT_ID   = 67601
ELEMENT_SET_NO = 999
REV_AT_EPOCH   = 294
BSTAR          = .37430004E-4
MEAN_MOTION_DOT = .7029E-4
MEAN_MOTION_DDOT = 0

CCSDS_OMM_VERS = 2.0
CREATION_DATE  = 
ORIGINATOR     = 

OBJECT_NAME    = STARLINK-36631
OBJECT_ID      = 2026-018P
CENTER_NAME    = EARTH
REF_FRAME      = TEME
TIME_SYSTEM    = UTC
MEAN_ELEMENT_THEORY = SGP/SGP4

EPOCH          = 2026-02-10T06:00:02.000160
MEAN_MOTION    = 15.81056224
ECCENTRICITY   = .00009517
INCLINATION    = 97.2773
RA_OF_ASC_NODE = 105.6625
ARG_OF_PERICENTER = 82.0574
MEAN_ANOMALY   = 351.7685

EPHEMERIS_TYPE = 0
CLASSIFICATION_TYPE = U
NORAD_CAT_ID   = 67602
ELEMENT_SET_NO = 999
REV_AT_EPOCH   = 293
BSTAR          = -.22058179E-2
MEAN_MOTION_DOT = -.407972E-2
MEAN_MOTION_DDOT = 0

CCSDS_OMM_VERS = 2.0
CREATION_DATE  = 
ORIGINATOR     = 

OBJECT_NAME    = STARLINK-36626
OBJECT_ID      = 2026-018Q
CENTER_NAME    = EARTH
REF_FRAME      = TEME
TIME_SYSTEM    = UTC
MEAN_ELEMENT_THEORY = SGP/SGP4

EPOCH          = 2026-02-10T06:00:02.000160
MEAN_MOTION    = 15.81950502
ECCENTRICITY   = .00013689
INCLINATION    = 97.2769
RA_OF_ASC_NODE = 105.6700
ARG_OF_PERICENTER = 71.1424
MEAN_ANOMALY   = 20.0914

EPHEMERIS_TYPE = 0
CLASSIFICATION_TYPE = U
NORAD_CAT_ID   = 67603
ELEMENT_SET_NO = 999
REV_AT_EPOCH   = 293
BSTAR          = -.77316987E-2
MEAN_MOTION_DOT = -.1365659E-1
MEAN_MOTION_DDOT = 0

CCSDS_OMM_VERS = 2.0
CREATION_DATE  = 
ORIGINATOR     = 

OBJECT_NAME    = STARLINK-36605
OBJECT_ID      = 2026-018R
CENTER_NAME    = EARTH
REF_FRAME      = TEME
TIME_SYSTEM    = UTC
MEAN_ELEMENT_THEORY = SGP/SGP4

EPOCH          = 2026-02-10T06:00:02.000160
MEAN_MOTION    = 15.81754535
ECCENTRICITY   = .00011438
INCLINATION    = 97.2768
RA_OF_ASC_NODE = 105.6683
ARG_OF_PERICENTER = 83.9055
MEAN_ANOMALY   = 2.7186

EPHEMERIS_TYPE = 0
CLASSIFICATION_TYPE = U
NORAD_CAT_ID   = 67604
ELEMENT_SET_NO = 999
REV_AT_EPOCH   = 293
BSTAR          = -.72827002E-2
MEAN_MOTION_DOT = -.1285304E-1
MEAN_MOTION_DDOT = 0

CCSDS_OMM_VERS = 2.0
CREATION_DATE  = 
ORIGINATOR     = 

OBJECT_NAME    = STARLINK-36281
OBJECT_ID      = 2026-018S
CENTER_NAME    = EARTH
REF_FRAME      = TEME
TIME_SYSTEM    = UTC
MEAN_ELEMENT_THEORY = SGP/SGP4

EPOCH          = 2026-02-10T06:00:02.000160
MEAN_MOTION    = 15.81394367
ECCENTRICITY   = .00011215
INCLINATION    = 97.2770
RA_OF_ASC_NODE = 105.6648
ARG_OF_PERICENTER = 71.6184
MEAN_ANOMALY   = 9.1152

EPHEMERIS_TYPE = 0
CLASSIFICATION_TYPE = U
NORAD_CAT_ID   = 67605
ELEMENT_SET_NO = 999
REV_AT_EPOCH   = 298
BSTAR          = -.45599323E-2
MEAN_MOTION_DOT = -.817607E-2
MEAN_MOTION_DDOT = 0

CCSDS_OMM_VERS = 2.0
CREATION_DATE  = 
ORIGINATOR     = 

OBJECT_NAME    = STARLINK-35843
OBJECT_ID      = 2026-018T
CENTER_NAME    = EARTH
REF_FRAME      = TEME
TIME_SYSTEM    = UTC
MEAN_ELEMENT_THEORY = SGP/SGP4

EPOCH          = 2026-02-10T06:00:02.000160
MEAN_MOTION    = 15.82242142
ECCENTRICITY   = .0001612
INCLINATION    = 97.2767
RA_OF_ASC_NODE = 105.6715
ARG_OF_PERICENTER = 59.9103
MEAN_ANOMALY   = 36.7181

EPHEMERIS_TYPE = 0
CLASSIFICATION_TYPE = U
NORAD_CAT_ID   = 67606
ELEMENT_SET_NO = 999
REV_AT_EPOCH   = 299
BSTAR          = -.90956095E-2
MEAN_MOTION_DOT = -.1626059E-1
MEAN_MOTION_DDOT = 0

CCSDS_OMM_VERS = 2.0
CREATION_DATE  = 
ORIGINATOR     = 

OBJECT_NAME    = STARLINK-36351
OBJECT_ID      = 2026-018U
CENTER_NAME    = EARTH
REF_FRAME      = TEME
TIME_SYSTEM    = UTC
MEAN_ELEMENT_THEORY = SGP/SGP4

EPOCH          = 2026-02-10T06:00:02.000160
MEAN_MOTION    = 15.82481180
ECCENTRICITY   = .0001746
INCLINATION    = 97.2770
RA_OF_ASC_NODE = 105.6737
ARG_OF_PERICENTER = 58.7120
MEAN_ANOMALY   = 42.6713

EPHEMERIS_TYPE = 0
CLASSIFICATION_TYPE = U
NORAD_CAT_ID   = 67607
ELEMENT_SET_NO = 999
REV_AT_EPOCH   = 299
BSTAR          = -.98891092E-2
MEAN_MOTION_DOT = -.1765149E-1
MEAN_MOTION_DDOT = 0

CCSDS_OMM_VERS = 2.0
CREATION_DATE  = 
ORIGINATOR     = 

OBJECT_NAME    = STARLINK-36411
OBJECT_ID      = 2026-018V
CENTER_NAME    = EARTH
REF_FRAME      = TEME
TIME_SYSTEM    = UTC
MEAN_ELEMENT_THEORY = SGP/SGP4

EPOCH          = 2026-02-10T06:00:02.000160
MEAN_MOTION    = 15.82780385
ECCENTRICITY   = .00020106
INCLINATION    = 97.2769
RA_OF_ASC_NODE = 105.6779
ARG_OF_PERICENTER = 73.3202
MEAN_ANOMALY   = 35.3563

EPHEMERIS_TYPE = 0
CLASSIFICATION_TYPE = U
NORAD_CAT_ID   = 67608
ELEMENT_SET_NO = 999
REV_AT_EPOCH   = 298
BSTAR          = -.9670102E-2
MEAN_MOTION_DOT = -.1752962E-1
MEAN_MOTION_DDOT = 0

CCSDS_OMM_VERS = 2.0
CREATION_DATE  = 
ORIGINATOR     = 

OBJECT_NAME    = STARLINK-36312
OBJECT_ID      = 2026-018W
CENTER_NAME    = EARTH
REF_FRAME      = TEME
TIME_SYSTEM    = UTC
MEAN_ELEMENT_THEORY = SGP/SGP4

EPOCH          = 2026-02-10T06:00:02.000160
MEAN_MOTION    = 15.82964805
ECCENTRICITY   = .00015662
INCLINATION    = 97.2769
RA_OF_ASC_NODE = 105.6804
ARG_OF_PERICENTER = 70.9768
MEAN_ANOMALY   = 44.0106

EPHEMERIS_TYPE = 0
CLASSIFICATION_TYPE = U
NORAD_CAT_ID   = 67609
ELEMENT_SET_NO = 999
REV_AT_EPOCH   = 299
BSTAR          = -.91623067E-2
MEAN_MOTION_DOT = -.1685514E-1
MEAN_MOTION_DDOT = 0

CCSDS_OMM_VERS = 2.0
CREATION_DATE  = 
ORIGINATOR     = 

OBJECT_NAME    = STARLINK-36387
OBJECT_ID      = 2026-018X
CENTER_NAME    = EARTH
REF_FRAME      = TEME
TIME_SYSTEM    = UTC
MEAN_ELEMENT_THEORY = SGP/SGP4

EPOCH          = 2026-02-10T06:00:02.000160
MEAN_MOTION    = 15.83306218
ECCENTRICITY   = .00016332
INCLINATION    = 97.2762
RA_OF_ASC_NODE = 105.6822
ARG_OF_PERICENTER = 60.8084
MEAN_ANOMALY   = 61.7375

EPHEMERIS_TYPE = 0
CLASSIFICATION_TYPE = U
NORAD_CAT_ID   = 67610
ELEMENT_SET_NO = 999
REV_AT_EPOCH   = 299
BSTAR          = -.96826648E-2
MEAN_MOTION_DOT = -.1792383E-1
MEAN_MOTION_DDOT = 0

CCSDS_OMM_VERS = 2.0
CREATION_DATE  = 
ORIGINATOR     = 

OBJECT_NAME    = STARLINK-36636
OBJECT_ID      = 2026-018Y
CENTER_NAME    = EARTH
REF_FRAME      = TEME
TIME_SYSTEM    = UTC
MEAN_ELEMENT_THEORY = SGP/SGP4

EPOCH          = 2026-02-10T06:00:02.000160
MEAN_MOTION    = 15.83517174
ECCENTRICITY   = .00015182
INCLINATION    = 97.2761
RA_OF_ASC_NODE = 105.6848
ARG_OF_PERICENTER = 69.7600
MEAN_ANOMALY   = 58.3716

EPHEMERIS_TYPE = 0
CLASSIFICATION_TYPE = U
NORAD_CAT_ID   = 67611
ELEMENT_SET_NO = 999
REV_AT_EPOCH   = 294
BSTAR          = -.95748658E-2
MEAN_MOTION_DOT = -.1790501E-1
MEAN_MOTION_DDOT = 0

CCSDS_OMM_VERS = 2.0
CREATION_DATE  = 
ORIGINATOR     = 

OBJECT_NAME    = STARLINK-36407
OBJECT_ID      = 2026-018Z
CENTER_NAME    = EARTH
REF_FRAME      = TEME
TIME_SYSTEM    = UTC
MEAN_ELEMENT_THEORY = SGP/SGP4

EPOCH          = 2026-02-10T06:00:02.000160
MEAN_MOTION    = 15.83692945
ECCENTRICITY   = .00015826
INCLINATION    = 97.2761
RA_OF_ASC_NODE = 105.6868
ARG_OF_PERICENTER = 63.4880
MEAN_ANOMALY   = 69.3902

EPHEMERIS_TYPE = 0
CLASSIFICATION_TYPE = U
NORAD_CAT_ID   = 67612
ELEMENT_SET_NO = 999
REV_AT_EPOCH   = 304
BSTAR          = -.94834817E-2
MEAN_MOTION_DOT = -.178873E-1
MEAN_MOTION_DDOT = 0

