STARLINK-36635          
1 67601U 26018N   26041.25002315  .00007029  00000+0  37430-4 0  9996
2 67601  97.2777 105.6572 0001233  54.0496   6.3671 15.80801898  2940
STARLINK-36631          
1 67602U 26018P   26041.25002315 -.00407972  00000+0 -22058-2 0  9998
2 67602  97.2773 105.6625 0000951  82.0574 351.7685 15.81056224  2937
STARLINK-36626          
1 67603U 26018Q   26041.25002315 -.01365659  00000+0 -77317-2 0  9993
2 67603  97.2769 105.6700 0001368  71.1424  20.0914 15.81950502  2936
STARLINK-36605          
1 67604U 26018R   26041.25002315 -.01285304  00000+0 -72827-2 0  9993
2 67604  97.2768 105.6683 0001143  83.9055   2.7186 15.81754535  2934
STARLINK-36281          
1 67605U 26018S   26041.25002315 -.00817607  00000+0 -45599-2 0  9996
2 67605  97.2770 105.6648 0001121  71.6184   9.1152 15.81394367  2984
STARLINK-35843          
1 67606U 26018T   26041.25002315 -.01626059  00000+0 -90956-2 0  9994
2 67606  97.2767 105.6715 0001612  59.9103  36.7181 15.82242142  2994
STARLINK-36351          
1 67607U 26018U   26041.25002315 -.01765149  00000+0 -98891-2 0  9995
2 67607  97.2770 105.6737 0001746  58.7120  42.6713 15.82481180  2991
STARLINK-36411          
1 67608U 26018V   26041.25002315 -.01752962  00000+0 -96701-2 0  9993
2 67608  97.2769 105.6779 0002010  73.3202  35.3563 15.82780385  2985
STARLINK-36312          
1 67609U 26018W   26041.25002315 -.01685514  00000+0 -91623-2 0  9990
2 67609  97.2769 105.6804 0001566  70.9768  44.0106 15.82964805  2992
STARLINK-36387          
1 67610U 26018X   26041.25002315 -.01792383  00000+0 -96827-2 0  9996
2 67610  97.2762 105.6822 0001633  60.8084  61.7375 15.83306218  2994
STARLINK-36636          
1 67611U 26018Y   26041.25002315 -.01790501  00000+0 -95749-2 0  9999
2 67611  97.2761 105.6848 0001518  69.7600  58.3716 15.83517174  2947
STARLINK-36407          
1 67612U 26018Z   26041.25002315 -.01788730  00000+0 -94835-2 0  9996
2 67612  97.2761 105.6868 0001582  63.4880  69.3902 15.83692945  3043
